GLOBALSTAR M063         
1 26081U 00008A   24140.11151914  .00000012  00000+0  13855-2 0  9995
2 26081  51.9966  69.4090 0004411 284.5094  88.0985 11.86155887110814
GLOBALSTAR M062         
1 26082U 00008B   24140.41686400 -.00000029  00000+0  49327-3 0  9995
2 26082  51.9820 173.7144 0006905 351.2349 113.1266 12.43435956447635
GLOBALSTAR M060         
1 26083U 00008C   24140.11459914 -.00000030  00000+0  60994-3 0  9996
2 26083  52.0025  78.8573 0003730  41.8529 331.5462 12.17633864104364
GLOBALSTAR M064         
1 26084U 00008D   24140.55526469 -.00000043  00000+0  57313-3 0  9990
2 26084  52.0001 171.7132 0001242  14.6133 345.4735 11.88519219120299
GLOBALSTAR M065         
1 31571U 07020A   24139.89037264 -.00000031  00000+0  40675-3 0  9993
2 31571  51.9912 346.3416 0010479 151.4393 312.6076 12.61970818783624
GLOBALSTAR M069         
1 31573U 07020C   24140.59836934 -.00000055  00000+0  27472-3 0  9991
2 31573  51.9956 300.0501 0001016 116.1812 320.6699 12.62273292784845
GLOBALSTAR M072         
1 31574U 07020D   24140.13439962 -.00000017  00000+0  48278-3 0  9997
2 31574  52.0105  37.3715 0000845  61.0663  86.5905 12.62263280783058
GLOBALSTAR M071         
1 31576U 07020F   24140.62505375 -.00000062  00000+0  23516-3 0  9993
2 31576  52.0073 305.1121 0000808  81.4330 356.4809 12.62266231446032
